[{"OBJECT_NAME":"ONEWEB-0107","OBJECT_ID":"2021-025G","EPOCH":"2026-05-02T02:14:24.868032","MEAN_MOTION":13.13471396,"ECCENTRICITY":0.0001469,"INCLINATION":87.8965,"RA_OF_ASC_NODE":329.3905,"ARG_OF_PERICENTER":85.843,"MEAN_ANOMALY":274.2867,"EPHEMERIS_TYPE":0,"CLASSIFICATION_TYPE":"U","NORAD_CAT_ID":48048,"ELEMENT_SET_NO":999,"REV_AT_EPOCH":24747,"BSTAR":0.0009462699999999999,"MEAN_MOTION_DOT":3.58e-06,"MEAN_MOTION_DDOT":0.0},{"OBJECT_NAME":"ONEWEB-0101","OBJECT_ID":"2021-025H","EPOCH":"2026-05-02T03:10:28.641216","MEAN_MOTION":13.13470876,"ECCENTRICITY":0.0001656,"INCLINATION":87.8952,"RA_OF_ASC_NODE":329.4028,"ARG_OF_PERICENTER":81.7677,"MEAN_ANOMALY":278.364,"EPHEMERIS_TYPE":0,"CLASSIFICATION_TYPE":"U","NORAD_CAT_ID":48049,"ELEMENT_SET_NO":999,"REV_AT_EPOCH":24745,"BSTAR":-0.0005360899999999999,"MEAN_MOTION_DOT":-1.83e-06,"MEAN_MOTION_DDOT":0.0},{"OBJECT_NAME":"ONEWEB-0113","OBJECT_ID":"2021-025J","EPOCH":"2026-05-02T02:17:27.172896","MEAN_MOTION":13.13947691,"ECCENTRICITY":0.0002033,"INCLINATION":87.8959,"RA_OF_ASC_NODE":329.3248,"ARG_OF_PERICENTER":90.0952,"MEAN_ANOMALY":270.041,"EPHEMERIS_TYPE":0,"CLASSIFICATION_TYPE":"U","NORAD_CAT_ID":48050,"ELEMENT_SET_NO":999,"REV_AT_EPOCH":24755,"BSTAR":0.00086624,"MEAN_MOTION_DOT":3.31e-06,"MEAN_MOTION_DDOT":0.0},{"OBJECT_NAME":"ONEWEB-0112","OBJECT_ID":"2021-025K","EPOCH":"2026-05-02T00:32:03.179328","MEAN_MOTION":13.13470239,"ECCENTRICITY":0.0001602,"INCLINATION":87.8966,"RA_OF_ASC_NODE":329.4026,"ARG_OF_PERICENTER":80.1696,"MEAN_ANOMALY":279.9614,"EPHEMERIS_TYPE":0,"CLASSIFICATION_TYPE":"U","NORAD_CAT_ID":48051,"ELEMENT_SET_NO":999,"REV_AT_EPOCH":24753,"BSTAR":0.00093608,"MEAN_MOTION_DOT":3.55e-06,"MEAN_MOTION_DDOT":0.0},{"OBJECT_NAME":"ONEWEB-0156","OBJECT_ID":"2021-025L","EPOCH":"2026-05-02T00:44:14.297856","MEAN_MOTION":13.13470059,"ECCENTRICITY":0.000162,"INCLINATION":87.8964,"RA_OF_ASC_NODE":329.4112,"ARG_OF_PERICENTER":88.9406,"MEAN_ANOMALY":271.1909,"EPHEMERIS_TYPE":0,"CLASSIFICATION_TYPE":"U","NORAD_CAT_ID":48052,"ELEMENT_SET_NO":999,"REV_AT_EPOCH":24751,"BSTAR":0.00091478,"MEAN_MOTION_DOT":3.47e-06,"MEAN_MOTION_DDOT":0.0},{"OBJECT_NAME":"ONEWEB-0161","OBJECT_ID":"2021-025M","EPOCH":"2026-05-02T01:57:21.535200","MEAN_MOTION":13.13471349,"ECCENTRICITY":0.0001568,"INCLINATION":87.8952,"RA_OF_ASC_NODE":329.4054,"ARG_OF_PERICENTER":88.0482,"MEAN_ANOMALY":272.0827,"EPHEMERIS_TYPE":0,"CLASSIFICATION_TYPE":"U","NORAD_CAT_ID":48053,"ELEMENT_SET_NO":999,"REV_AT_EPOCH":24745,"BSTAR":0.00020993000000000002,"MEAN_MOTION_DOT":8.9e-07,"MEAN_MOTION_DDOT":0.0},{"OBJECT_NAME":"ONEWEB-0158","OBJECT_ID":"2021-025N","EPOCH":"2026-05-01T23:09:09.305856","MEAN_MOTION":13.1347007,"ECCENTRICITY":0.0002037,"INCLINATION":87.8963,"RA_OF_ASC_NODE":329.4239,"ARG_OF_PERICENTER":81.8073,"MEAN_ANOMALY":278.3287,"EPHEMERIS_TYPE":0,"CLASSIFICATION_TYPE":"U","NORAD_CAT_ID":48054,"ELEMENT_SET_NO":999,"REV_AT_EPOCH":24756,"BSTAR":0.00038339,"MEAN_MOTION_DOT":1.53e-06,"MEAN_MOTION_DDOT":0.0},{"OBJECT_NAME":"ONEWEB-0157","OBJECT_ID":"2021-025P","EPOCH":"2026-05-02T01:35:24.152928","MEAN_MOTION":13.13471034,"ECCENTRICITY":0.0001354,"INCLINATION":87.8966,"RA_OF_ASC_NODE":329.4081,"ARG_OF_PERICENTER":83.2103,"MEAN_ANOMALY":276.918,"EPHEMERIS_TYPE":0,"CLASSIFICATION_TYPE":"U","NORAD_CAT_ID":48055,"ELEMENT_SET_NO":999,"REV_AT_EPOCH":24751,"BSTAR":-0.00058878,"MEAN_MOTION_DOT":-2.02e-06,"MEAN_MOTION_DDOT":0.0},{"OBJECT_NAME":"ONEWEB-0162","OBJECT_ID":"2021-025Q","EPOCH":"2026-05-02T01:01:05.785248","MEAN_MOTION":13.13470408,"ECCENTRICITY":0.0001697,"INCLINATION":87.8959,"RA_OF_ASC_NODE":329.4161,"ARG_OF_PERICENTER":91.537,"MEAN_ANOMALY":268.5954,"EPHEMERIS_TYPE":0,"CLASSIFICATION_TYPE":"U","NORAD_CAT_ID":48056,"ELEMENT_SET_NO":999,"REV_AT_EPOCH":24748,"BSTAR":0.00034872,"MEAN_MOTION_DOT":1.4e-06,"MEAN_MOTION_DDOT":0.0},{"OBJECT_NAME":"ONEWEB-0155","OBJECT_ID":"2021-025R","EPOCH":"2026-05-02T03:00:43.985376","MEAN_MOTION":13.1347007,"ECCENTRICITY":0.0001625,"INCLINATION":87.896,"RA_OF_ASC_NODE":329.3957,"ARG_OF_PERICENTER":80.8289,"MEAN_ANOMALY":279.3024,"EPHEMERIS_TYPE":0,"CLASSIFICATION_TYPE":"U","NORAD_CAT_ID":48057,"ELEMENT_SET_NO":999,"REV_AT_EPOCH":24763,"BSTAR":-0.00017091,"MEAN_MOTION_DOT":-5e-07,"MEAN_MOTION_DDOT":0.0},{"OBJECT_NAME":"ONEWEB-0149","OBJECT_ID":"2021-025S","EPOCH":"2026-05-02T01:42:44.112096","MEAN_MOTION":13.13470645,"ECCENTRICITY":0.0001701,"INCLINATION":87.8964,"RA_OF_ASC_NODE":329.4076,"ARG_OF_PERICENTER":93.6159,"MEAN_ANOMALY":266.5164,"EPHEMERIS_TYPE":0,"CLASSIFICATION_TYPE":"U","NORAD_CAT_ID":48058,"ELEMENT_SET_NO":999,"REV_AT_EPOCH":24743,"BSTAR":-0.00050078,"MEAN_MOTION_DOT":-1.7e-06,"MEAN_MOTION_DDOT":0.0},{"OBJECT_NAME":"ONEWEB-0148","OBJECT_ID":"2021-025T","EPOCH":"2026-05-02T00:49:06.371328","MEAN_MOTION":13.13470391,"ECCENTRICITY":0.0001486,"INCLINATION":87.8946,"RA_OF_ASC_NODE":329.4257,"ARG_OF_PERICENTER":105.2794,"MEAN_ANOMALY":254.8499,"EPHEMERIS_TYPE":0,"CLASSIFICATION_TYPE":"U","NORAD_CAT_ID":48059,"ELEMENT_SET_NO":999,"REV_AT_EPOCH":24755,"BSTAR":0.0010085,"MEAN_MOTION_DOT":3.81e-06,"MEAN_MOTION_DDOT":0.0},{"OBJECT_NAME":"ONEWEB-0160","OBJECT_ID":"2021-025U","EPOCH":"2026-05-02T03:03:11.138400","MEAN_MOTION":13.1346929,"ECCENTRICITY":0.0002497,"INCLINATION":87.8957,"RA_OF_ASC_NODE":329.4033,"ARG_OF_PERICENTER":86.1205,"MEAN_ANOMALY":274.0209,"EPHEMERIS_TYPE":0,"CLASSIFICATION_TYPE":"U","NORAD_CAT_ID":48060,"ELEMENT_SET_NO":999,"REV_AT_EPOCH":24751,"BSTAR":-0.00045223,"MEAN_MOTION_DOT":-1.52e-06,"MEAN_MOTION_DDOT":0.0},{"OBJECT_NAME":"ONEWEB-0163","OBJECT_ID":"2021-025V","EPOCH":"2026-05-02T00:51:31.716000","MEAN_MOTION":13.13470232,"ECCENTRICITY":0.0001458,"INCLINATION":87.8955,"RA_OF_ASC_NODE":329.4146,"ARG_OF_PERICENTER":82.91,"MEAN_ANOMALY":277.2195,"EPHEMERIS_TYPE":0,"CLASSIFICATION_TYPE":"U","NORAD_CAT_ID":48061,"ELEMENT_SET_NO":999,"REV_AT_EPOCH":24762,"BSTAR":0.00080848,"MEAN_MOTION_DOT":3.08e-06,"MEAN_MOTION_DDOT":0.0},{"OBJECT_NAME":"ONEWEB-0159","OBJECT_ID":"2021-025W","EPOCH":"2026-05-02T00:39:21.901248","MEAN_MOTION":13.13472521,"ECCENTRICITY":0.0001503,"INCLINATION":87.8966,"RA_OF_ASC_NODE":329.4071,"ARG_OF_PERICENTER":82.2141,"MEAN_ANOMALY":277.9159,"EPHEMERIS_TYPE":0,"CLASSIFICATION_TYPE":"U","NORAD_CAT_ID":48062,"ELEMENT_SET_NO":999,"REV_AT_EPOCH":24754,"BSTAR":0.0010565,"MEAN_MOTION_DOT":3.99e-06,"MEAN_MOTION_DDOT":0.0},{"OBJECT_NAME":"ONEWEB-0164","OBJECT_ID":"2021-025X","EPOCH":"2026-05-02T02:02:14.380224","MEAN_MOTION":13.13470956,"ECCENTRICITY":0.0001806,"INCLINATION":87.8965,"RA_OF_ASC_NODE":329.402,"ARG_OF_PERICENTER":85.3906,"MEAN_ANOMALY":274.7429,"EPHEMERIS_TYPE":0,"CLASSIFICATION_TYPE":"U","NORAD_CAT_ID":48063,"ELEMENT_SET_NO":999,"REV_AT_EPOCH":24753,"BSTAR":0.00032139,"MEAN_MOTION_DOT":1.3e-06,"MEAN_MOTION_DDOT":0.0}]