ONEWEB-0107             
1 48048U 21025G   26122.09334338  .00000358  00000+0  94627-3 0  9996
2 48048  87.8965 329.3905 0001469  85.8430 274.2867 13.13471396247476
ONEWEB-0101             
1 48049U 21025H   26122.13227594 -.00000183  00000+0 -53609-3 0  9990
2 48049  87.8952 329.4028 0001656  81.7677 278.3640 13.13470876247450
ONEWEB-0113             
1 48050U 21025J   26122.09545339  .00000331  00000+0  86624-3 0  9993
2 48050  87.8959 329.3248 0002033  90.0952 270.0410 13.13947691247550
ONEWEB-0112             
1 48051U 21025K   26122.02225902  .00000355  00000+0  93608-3 0  9994
2 48051  87.8966 329.4026 0001602  80.1696 279.9614 13.13470239247531
ONEWEB-0156             
1 48052U 21025L   26122.03072104  .00000347  00000+0  91478-3 0  9994
2 48052  87.8964 329.4112 0001620  88.9406 271.1909 13.13470059247510
ONEWEB-0161             
1 48053U 21025M   26122.08149925  .00000089  00000+0  20993-3 0  9993
2 48053  87.8952 329.4054 0001568  88.0482 272.0827 13.13471349247454
ONEWEB-0158             
1 48054U 21025N   26121.96469104  .00000153  00000+0  38339-3 0  9999
2 48054  87.8963 329.4239 0002037  81.8073 278.3287 13.13470070247562
ONEWEB-0157             
1 48055U 21025P   26122.06625177 -.00000202  00000+0 -58878-3 0  9993
2 48055  87.8966 329.4081 0001354  83.2103 276.9180 13.13471034247514
ONEWEB-0162             
1 48056U 21025Q   26122.04242807  .00000140  00000+0  34872-3 0  9994
2 48056  87.8959 329.4161 0001697  91.5370 268.5954 13.13470408247480
ONEWEB-0155             
1 48057U 21025R   26122.12550909 -.00000050  00000+0 -17091-3 0  9995
2 48057  87.8960 329.3957 0001625  80.8289 279.3024 13.13470070247636
ONEWEB-0149             
1 48058U 21025S   26122.07134389 -.00000170  00000+0 -50078-3 0  9995
2 48058  87.8964 329.4076 0001701  93.6159 266.5164 13.13470645247436
ONEWEB-0148             
1 48059U 21025T   26122.03410152  .00000381  00000+0  10085-2 0  9992
2 48059  87.8946 329.4257 0001486 105.2794 254.8499 13.13470391247555
ONEWEB-0160             
1 48060U 21025U   26122.12721225 -.00000152  00000+0 -45223-3 0  9991
2 48060  87.8957 329.4033 0002497  86.1205 274.0209 13.13469290247513
ONEWEB-0163             
1 48061U 21025V   26122.03578375  .00000308  00000+0  80848-3 0  9991
2 48061  87.8955 329.4146 0001458  82.9100 277.2195 13.13470232247620
ONEWEB-0159             
1 48062U 21025W   26122.02733682  .00000399  00000+0  10565-2 0  9993
2 48062  87.8966 329.4071 0001503  82.2141 277.9159 13.13472521247540
ONEWEB-0164             
1 48063U 21025X   26122.08488866  .00000130  00000+0  32139-3 0  9996
2 48063  87.8965 329.4020 0001806  85.3906 274.7429 13.13470956247537
